[
  {
    "id":1,
    "city_code":"0473",
    "city":"乌海市",
    "pinyin":"wuhaishi",
    "popular_city":0
  },
  {
    "id":2,
    "city_code":"0478",
    "city":"巴彦淖尔市",
    "pinyin":"bayannaoershi",
    "popular_city":0
  },
  {
    "id":3,
    "city_code":"0472",
    "city":"包头市",
    "pinyin":"baotoushi",
    "popular_city":0
  },
  {
    "id":4,
    "city_code":"0477",
    "city":"鄂尔多斯市",
    "pinyin":"eerduosishi",
    "popular_city":0
  },
  {
    "id":5,
    "city_code":"0470",
    "city":"呼伦贝尔市",
    "pinyin":"hulunbeiershi",
    "popular_city":0
  },
  {
    "id":6,
    "city_code":"0475",
    "city":"通辽市",
    "pinyin":"tongliaoshi",
    "popular_city":0
  },
  {
    "id":7,
    "city_code":"0483",
    "city":"阿拉善盟",
    "pinyin":"alashanmeng",
    "popular_city":0
  },
  {
    "id":8,
    "city_code":"0476",
    "city":"赤峰市",
    "pinyin":"chifengshi",
    "popular_city":0
  },
  {
    "id":9,
    "city_code":"0482",
    "city":"兴安盟",
    "pinyin":"xinganmeng",
    "popular_city":0
  },
  {
    "id":10,
    "city_code":"0474",
    "city":"乌兰察布市",
    "pinyin":"wulanchabushi",
    "popular_city":0
  },
  {
    "id":11,
    "city_code":"0479",
    "city":"锡林郭勒盟",
    "pinyin":"xilinguolemeng",
    "popular_city":0
  },
  {
    "id":12,
    "city_code":"0471",
    "city":"呼和浩特市",
    "pinyin":"huhehaoteshi",
    "popular_city":0
  },
  {
    "id":13,
    "city_code":"0754",
    "city":"汕头市",
    "pinyin":"shantoushi",
    "popular_city":0
  },
  {
    "id":14,
    "city_code":"0757",
    "city":"佛山市",
    "pinyin":"foshanshi",
    "popular_city":0
  },
  {
    "id":15,
    "city_code":"0758",
    "city":"肇庆市",
    "pinyin":"zhaoqingshi",
    "popular_city":0
  },
  {
    "id":16,
    "city_code":"0752",
    "city":"惠州市",
    "pinyin":"huizhoushi",
    "popular_city":0
  },
  {
    "id":17,
    "city_code":"0759",
    "city":"湛江市",
    "pinyin":"zhanjiangshi",
    "popular_city":0
  },
  {
    "id":18,
    "city_code":"0756",
    "city":"珠海市",
    "pinyin":"zhuhaishi",
    "popular_city":0
  },
  {
    "id":19,
    "city_code":"0660",
    "city":"汕尾市",
    "pinyin":"shanweishi",
    "popular_city":0
  },
  {
    "id":20,
    "city_code":"0750",
    "city":"江门市",
    "pinyin":"jiangmenshi",
    "popular_city":0
  },
  {
    "id":21,
    "city_code":"0768",
    "city":"潮州市",
    "pinyin":"chaozhoushi",
    "popular_city":0
  },
  {
    "id":22,
    "city_code":"0767",
    "city":"东沙群岛",
    "pinyin":"dongshaqundao",
    "popular_city":0
  },
  {
    "id":23,
    "city_code":"0755",
    "city":"深圳市",
    "pinyin":"shenzhenshi",
    "popular_city":1
  },
  {
    "id":24,
    "city_code":"0668",
    "city":"茂名市",
    "pinyin":"maomingshi",
    "popular_city":0
  },
  {
    "id":25,
    "city_code":"0662",
    "city":"阳江市",
    "pinyin":"yangjiangshi",
    "popular_city":0
  },
  {
    "id":26,
    "city_code":"0766",
    "city":"云浮市",
    "pinyin":"yunfushi",
    "popular_city":0
  },
  {
    "id":27,
    "city_code":"0753",
    "city":"梅州市",
    "pinyin":"meizhoushi",
    "popular_city":0
  },
  {
    "id":28,
    "city_code":"020",
    "city":"广州市",
    "pinyin":"guangzhoushi",
    "popular_city":1
  },
  {
    "id":29,
    "city_code":"0762",
    "city":"河源市",
    "pinyin":"heyuanshi",
    "popular_city":0
  },
  {
    "id":30,
    "city_code":"0769",
    "city":"东莞市",
    "pinyin":"dongguanshi",
    "popular_city":0
  },
  {
    "id":31,
    "city_code":"0663",
    "city":"揭阳市",
    "pinyin":"jieyangshi",
    "popular_city":0
  },
  {
    "id":32,
    "city_code":"0751",
    "city":"韶关市",
    "pinyin":"shaoguanshi",
    "popular_city":0
  },
  {
    "id":33,
    "city_code":"0763",
    "city":"清远市",
    "pinyin":"qingyuanshi",
    "popular_city":0
  },
  {
    "id":34,
    "city_code":"0760",
    "city":"中山市",
    "pinyin":"zhongshanshi",
    "popular_city":0
  },
  {
    "id":35,
    "city_code":"0379",
    "city":"洛阳市",
    "pinyin":"luoyangshi",
    "popular_city":0
  },
  {
    "id":36,
    "city_code":"0393",
    "city":"濮阳市",
    "pinyin":"puyangshi",
    "popular_city":0
  },
  {
    "id":37,
    "city_code":"0398",
    "city":"三门峡市",
    "pinyin":"sanmenxiashi",
    "popular_city":0
  },
  {
    "id":38,
    "city_code":"0395",
    "city":"漯河市",
    "pinyin":"luoheshi",
    "popular_city":0
  },
  {
    "id":39,
    "city_code":"0374",
    "city":"许昌市",
    "pinyin":"xuchangshi",
    "popular_city":0
  },
  {
    "id":40,
    "city_code":"0377",
    "city":"南阳市",
    "pinyin":"nanyangshi",
    "popular_city":1
  },
  {
    "id":41,
    "city_code":"0376",
    "city":"信阳市",
    "pinyin":"xinyangshi",
    "popular_city":0
  },
  {
    "id":42,
    "city_code":"1391",
    "city":"济源市",
    "pinyin":"jiyuanshi",
    "popular_city":0
  },
  {
    "id":43,
    "city_code":"0396",
    "city":"驻马店市",
    "pinyin":"zhumadianshi",
    "popular_city":0
  },
  {
    "id":44,
    "city_code":"0372",
    "city":"安阳市",
    "pinyin":"anyangshi",
    "popular_city":0
  },
  {
    "id":45,
    "city_code":"0391",
    "city":"焦作市",
    "pinyin":"jiaozuoshi",
    "popular_city":0
  },
  {
    "id":46,
    "city_code":"0370",
    "city":"商丘市",
    "pinyin":"shangqiushi",
    "popular_city":0
  },
  {
    "id":47,
    "city_code":"0392",
    "city":"鹤壁市",
    "pinyin":"hebishi",
    "popular_city":0
  },
  {
    "id":48,
    "city_code":"0373",
    "city":"新乡市",
    "pinyin":"xinxiangshi",
    "popular_city":0
  },
  {
    "id":49,
    "city_code":"0375",
    "city":"平顶山市",
    "pinyin":"pingdingshanshi",
    "popular_city":0
  },
  {
    "id":50,
    "city_code":"0378",
    "city":"开封市",
    "pinyin":"kaifengshi",
    "popular_city":0
  },
  {
    "id":51,
    "city_code":"0394",
    "city":"周口市",
    "pinyin":"zhoukoushi",
    "popular_city":0
  },
  {
    "id":52,
    "city_code":"0371",
    "city":"郑州市",
    "pinyin":"zhengzhoushi",
    "popular_city":1
  },
  {
    "id":53,
    "city_code":"0457",
    "city":"大兴安岭地区",
    "pinyin":"daxinganlingdiqu",
    "popular_city":0
  },
  {
    "id":54,
    "city_code":"0464",
    "city":"七台河市",
    "pinyin":"qitaiheshi",
    "popular_city":0
  },
  {
    "id":55,
    "city_code":"0468",
    "city":"鹤岗市",
    "pinyin":"hegangshi",
    "popular_city":0
  },
  {
    "id":56,
    "city_code":"0458",
    "city":"伊春市",
    "pinyin":"yichunshi",
    "popular_city":0
  },
  {
    "id":57,
    "city_code":"0451",
    "city":"哈尔滨市",
    "pinyin":"haerbinshi",
    "popular_city":0
  },
  {
    "id":58,
    "city_code":"0456",
    "city":"黑河市",
    "pinyin":"heiheshi",
    "popular_city":0
  },
  {
    "id":59,
    "city_code":"0455",
    "city":"绥化市",
    "pinyin":"suihuashi",
    "popular_city":0
  },
  {
    "id":60,
    "city_code":"0452",
    "city":"齐齐哈尔市",
    "pinyin":"qiqihaershi",
    "popular_city":0
  },
  {
    "id":61,
    "city_code":"0453",
    "city":"牡丹江市",
    "pinyin":"mudanjiangshi",
    "popular_city":0
  },
  {
    "id":62,
    "city_code":"0467",
    "city":"鸡西市",
    "pinyin":"jixishi",
    "popular_city":0
  },
  {
    "id":63,
    "city_code":"0459",
    "city":"大庆市",
    "pinyin":"daqingshi",
    "popular_city":0
  },
  {
    "id":64,
    "city_code":"0469",
    "city":"双鸭山市",
    "pinyin":"shuangyashanshi",
    "popular_city":0
  },
  {
    "id":65,
    "city_code":"0454",
    "city":"佳木斯市",
    "pinyin":"jiamusishi",
    "popular_city":0
  },
  {
    "id":66,
    "city_code":"0903",
    "city":"和田地区",
    "pinyin":"hetiandiqu",
    "popular_city":0
  },
  {
    "id":67,
    "city_code":"1909",
    "city":"双河市",
    "pinyin":"shuangheshi",
    "popular_city":0
  },
  {
    "id":68,
    "city_code":"1996",
    "city":"铁门关市",
    "pinyin":"tiemenguanshi",
    "popular_city":0
  },
  {
    "id":69,
    "city_code":"1906",
    "city":"北屯市",
    "pinyin":"beitunshi",
    "popular_city":0
  },
  {
    "id":70,
    "city_code":"1903",
    "city":"昆玉市",
    "pinyin":"kunyushi",
    "popular_city":0
  },
  {
    "id":71,
    "city_code":"0909",
    "city":"博尔塔拉蒙古自治州",
    "pinyin":"boertalamengguzizhizhou",
    "popular_city":0
  },
  {
    "id":72,
    "city_code":"1999",
    "city":"可克达拉市",
    "pinyin":"kekedalashi",
    "popular_city":0
  },
  {
    "id":73,
    "city_code":"0901",
    "city":"塔城地区",
    "pinyin":"tachengdiqu",
    "popular_city":0
  },
  {
    "id":74,
    "city_code":"0906",
    "city":"阿勒泰地区",
    "pinyin":"aletaidiqu",
    "popular_city":0
  },
  {
    "id":75,
    "city_code":"0990",
    "city":"克拉玛依市",
    "pinyin":"kelamayishi",
    "popular_city":0
  },
  {
    "id":76,
    "city_code":"0999",
    "city":"伊犁哈萨克自治州",
    "pinyin":"yilihasakezizhizhou",
    "popular_city":0
  },
  {
    "id":77,
    "city_code":"0996",
    "city":"巴音郭楞蒙古自治州",
    "pinyin":"bayinguolengmengguzizhizhou",
    "popular_city":0
  },
  {
    "id":78,
    "city_code":"0993",
    "city":"石河子市",
    "pinyin":"shihezishi",
    "popular_city":0
  },
  {
    "id":79,
    "city_code":"0994",
    "city":"昌吉回族自治州",
    "pinyin":"changjihuizuzizhizhou",
    "popular_city":0
  },
  {
    "id":80,
    "city_code":"0991",
    "city":"乌鲁木齐市",
    "pinyin":"wulumuqishi",
    "popular_city":0
  },
  {
    "id":81,
    "city_code":"1994",
    "city":"五家渠市",
    "pinyin":"wujiaqushi",
    "popular_city":0
  },
  {
    "id":82,
    "city_code":"0997",
    "city":"阿克苏地区",
    "pinyin":"akesudiqu",
    "popular_city":0
  },
  {
    "id":83,
    "city_code":"0998",
    "city":"喀什地区",
    "pinyin":"kashendiqu",
    "popular_city":0
  },
  {
    "id":84,
    "city_code":"1997",
    "city":"阿拉尔市",
    "pinyin":"alaershi",
    "popular_city":0
  },
  {
    "id":85,
    "city_code":"0908",
    "city":"克孜勒苏柯尔克孜自治州",
    "pinyin":"kezilesukeerkezizizhizhou",
    "popular_city":0
  },
  {
    "id":86,
    "city_code":"1998",
    "city":"图木舒克市",
    "pinyin":"tumushukeshi",
    "popular_city":0
  },
  {
    "id":87,
    "city_code":"0902",
    "city":"哈密市",
    "pinyin":"hamishi",
    "popular_city":0
  },
  {
    "id":88,
    "city_code":"0995",
    "city":"吐鲁番市",
    "pinyin":"tulufanshi",
    "popular_city":0
  },
  {
    "id":89,
    "city_code":"0710",
    "city":"襄阳市",
    "pinyin":"xiangyangshi",
    "popular_city":0
  },
  {
    "id":90,
    "city_code":"0719",
    "city":"十堰市",
    "pinyin":"shiyanshi",
    "popular_city":0
  },
  {
    "id":91,
    "city_code":"0713",
    "city":"黄冈市",
    "pinyin":"huanggangshi",
    "popular_city":0
  },
  {
    "id":92,
    "city_code":"0717",
    "city":"宜昌市",
    "pinyin":"yichangshi",
    "popular_city":0
  },
  {
    "id":93,
    "city_code":"027",
    "city":"武汉市",
    "pinyin":"wuhanshi",
    "popular_city":1
  },
  {
    "id":94,
    "city_code":"0724",
    "city":"荆门市",
    "pinyin":"jingmenshi",
    "popular_city":0
  },
  {
    "id":95,
    "city_code":"1728",
    "city":"天门市",
    "pinyin":"tianmenshi",
    "popular_city":0
  },
  {
    "id":96,
    "city_code":"0722",
    "city":"随州市",
    "pinyin":"suizhoushi",
    "popular_city":0
  },
  {
    "id":97,
    "city_code":"0712",
    "city":"孝感市",
    "pinyin":"xiaoganshi",
    "popular_city":0
  },
  {
    "id":98,
    "city_code":"2728",
    "city":"潜江市",
    "pinyin":"qianjiangshi",
    "popular_city":0
  },
  {
    "id":99,
    "city_code":"1719",
    "city":"神农架林区",
    "pinyin":"shennongjialinqu",
    "popular_city":0
  },
  {
    "id":100,
    "city_code":"0728",
    "city":"仙桃市",
    "pinyin":"xiantaoshi",
    "popular_city":0
  },
  {
    "id":101,
    "city_code":"0715",
    "city":"咸宁市",
    "pinyin":"xianningshi",
    "popular_city":0
  },
  {
    "id":102,
    "city_code":"0718",
    "city":"恩施土家族苗族自治州",
    "pinyin":"enshitujiazumiaozuzizhizhou",
    "popular_city":0
  },
  {
    "id":103,
    "city_code":"0716",
    "city":"荆州市",
    "pinyin":"jingzhoushi",
    "popular_city":0
  },
  {
    "id":104,
    "city_code":"0711",
    "city":"鄂州市",
    "pinyin":"ezhoushi",
    "popular_city":0
  },
  {
    "id":105,
    "city_code":"0714",
    "city":"黄石市",
    "pinyin":"huangshishi",
    "popular_city":0
  },
  {
    "id":106,
    "city_code":"0429",
    "city":"葫芦岛市",
    "pinyin":"huludaoshi",
    "popular_city":0
  },
  {
    "id":107,
    "city_code":"0411",
    "city":"大连市",
    "pinyin":"dalianshi",
    "popular_city":0
  },
  {
    "id":108,
    "city_code":"0410",
    "city":"铁岭市",
    "pinyin":"tielingshi",
    "popular_city":0
  },
  {
    "id":109,
    "city_code":"0413",
    "city":"抚顺市",
    "pinyin":"fushunshi",
    "popular_city":0
  },
  {
    "id":110,
    "city_code":"024",
    "city":"沈阳市",
    "pinyin":"shenyangshi",
    "popular_city":0
  },
  {
    "id":111,
    "city_code":"0419",
    "city":"辽阳市",
    "pinyin":"liaoyangshi",
    "popular_city":0
  },
  {
    "id":112,
    "city_code":"0415",
    "city":"丹东市",
    "pinyin":"dandongshi",
    "popular_city":0
  },
  {
    "id":113,
    "city_code":"0417",
    "city":"营口市",
    "pinyin":"yingkoushi",
    "popular_city":0
  },
  {
    "id":114,
    "city_code":"0416",
    "city":"锦州市",
    "pinyin":"jinzhoushi",
    "popular_city":0
  },
  {
    "id":115,
    "city_code":"0412",
    "city":"鞍山市",
    "pinyin":"anshanshi",
    "popular_city":0
  },
  {
    "id":116,
    "city_code":"0421",
    "city":"朝阳市",
    "pinyin":"chaoyangshi",
    "popular_city":0
  },
  {
    "id":117,
    "city_code":"0418",
    "city":"阜新市",
    "pinyin":"fuxinshi",
    "popular_city":0
  },
  {
    "id":118,
    "city_code":"0427",
    "city":"盘锦市",
    "pinyin":"panjinshi",
    "popular_city":0
  },
  {
    "id":119,
    "city_code":"0414",
    "city":"本溪市",
    "pinyin":"benxishi",
    "popular_city":0
  },
  {
    "id":120,
    "city_code":"0532",
    "city":"青岛市",
    "pinyin":"qingdaoshi",
    "popular_city":0
  },
  {
    "id":121,
    "city_code":"0633",
    "city":"日照市",
    "pinyin":"rizhaoshi",
    "popular_city":0
  },
  {
    "id":122,
    "city_code":"0535",
    "city":"烟台市",
    "pinyin":"yantaishi",
    "popular_city":0
  },
  {
    "id":123,
    "city_code":"0631",
    "city":"威海市",
    "pinyin":"weihaishi",
    "popular_city":0
  },
  {
    "id":124,
    "city_code":"0635",
    "city":"聊城市",
    "pinyin":"liaochengshi",
    "popular_city":0
  },
  {
    "id":125,
    "city_code":"0539",
    "city":"临沂市",
    "pinyin":"linyishi",
    "popular_city":0
  },
  {
    "id":126,
    "city_code":"0634",
    "city":"莱芜市",
    "pinyin":"laiwushi",
    "popular_city":0
  },
  {
    "id":127,
    "city_code":"0533",
    "city":"淄博市",
    "pinyin":"ziboshi",
    "popular_city":0
  },
  {
    "id":128,
    "city_code":"0536",
    "city":"潍坊市",
    "pinyin":"weifangshi",
    "popular_city":0
  },
  {
    "id":129,
    "city_code":"0531",
    "city":"济南市",
    "pinyin":"jinanshi",
    "popular_city":0
  },
  {
    "id":130,
    "city_code":"0546",
    "city":"东营市",
    "pinyin":"dongyingshi",
    "popular_city":0
  },
  {
    "id":131,
    "city_code":"0632",
    "city":"枣庄市",
    "pinyin":"zaozhuangshi",
    "popular_city":0
  },
  {
    "id":132,
    "city_code":"0537",
    "city":"济宁市",
    "pinyin":"jiningshi",
    "popular_city":0
  },
  {
    "id":133,
    "city_code":"0543",
    "city":"滨州市",
    "pinyin":"binzhoushi",
    "popular_city":0
  },
  {
    "id":134,
    "city_code":"0538",
    "city":"泰安市",
    "pinyin":"taianshi",
    "popular_city":0
  },
  {
    "id":135,
    "city_code":"0534",
    "city":"德州市",
    "pinyin":"dezhoushi",
    "popular_city":0
  },
  {
    "id":136,
    "city_code":"0530",
    "city":"菏泽市",
    "pinyin":"hezeshi",
    "popular_city":0
  },
  {
    "id":137,
    "city_code":"0914",
    "city":"商洛市",
    "pinyin":"shangluoshi",
    "popular_city":0
  },
  {
    "id":138,
    "city_code":"0919",
    "city":"铜川市",
    "pinyin":"tongchuanshi",
    "popular_city":0
  },
  {
    "id":139,
    "city_code":"0912",
    "city":"榆林市",
    "pinyin":"yulinshi",
    "popular_city":0
  },
  {
    "id":140,
    "city_code":"0915",
    "city":"安康市",
    "pinyin":"ankangshi",
    "popular_city":0
  },
  {
    "id":141,
    "city_code":"0916",
    "city":"汉中市",
    "pinyin":"hanzhongshi",
    "popular_city":0
  },
  {
    "id":142,
    "city_code":"029",
    "city":"西安市",
    "pinyin":"xianshi",
    "popular_city":0
  },
  {
    "id":143,
    "city_code":"0913",
    "city":"渭南市",
    "pinyin":"weinanshi",
    "popular_city":0
  },
  {
    "id":144,
    "city_code":"0911",
    "city":"延安市",
    "pinyin":"yananshi",
    "popular_city":0
  },
  {
    "id":145,
    "city_code":"0910",
    "city":"咸阳市",
    "pinyin":"xianyangshi",
    "popular_city":0
  },
  {
    "id":146,
    "city_code":"0917",
    "city":"宝鸡市",
    "pinyin":"baojishi",
    "popular_city":0
  },
  {
    "id":147,
    "city_code":"021",
    "city":"上海市",
    "pinyin":"shanghaishi",
    "popular_city":1
  },
  {
    "id":148,
    "city_code":"0856",
    "city":"铜仁市",
    "pinyin":"tongrenshi",
    "popular_city":0
  },
  {
    "id":149,
    "city_code":"0858",
    "city":"六盘水市",
    "pinyin":"liupanshuishi",
    "popular_city":0
  },
  {
    "id":150,
    "city_code":"0852",
    "city":"遵义市",
    "pinyin":"zunyishi",
    "popular_city":0
  },
  {
    "id":151,
    "city_code":"0855",
    "city":"黔东南苗族侗族自治州",
    "pinyin":"qiandongnanmiaozudongzuzizhizhou",
    "popular_city":0
  },
  {
    "id":152,
    "city_code":"0854",
    "city":"黔南布依族苗族自治州",
    "pinyin":"qiannanbuyizumiaozuzizhizhou",
    "popular_city":0
  },
  {
    "id":153,
    "city_code":"0857",
    "city":"毕节市",
    "pinyin":"bijieshi",
    "popular_city":0
  },
  {
    "id":154,
    "city_code":"0859",
    "city":"黔西南布依族苗族自治州",
    "pinyin":"qianxinanbuyizumiaozuzizhizhou",
    "popular_city":0
  },
  {
    "id":155,
    "city_code":"0853",
    "city":"安顺市",
    "pinyin":"anshunshi",
    "popular_city":0
  },
  {
    "id":156,
    "city_code":"0851",
    "city":"贵阳市",
    "pinyin":"guiyangshi",
    "popular_city":0
  },
  {
    "id":157,
    "city_code":"023",
    "city":"重庆市",
    "pinyin":"chongqingshi",
    "popular_city":0
  },
  {
    "id":158,
    "city_code":"0895",
    "city":"昌都市",
    "pinyin":"changdoushi",
    "popular_city":0
  },
  {
    "id":159,
    "city_code":"0891",
    "city":"拉萨市",
    "pinyin":"lasashi",
    "popular_city":0
  },
  {
    "id":160,
    "city_code":"0896",
    "city":"那曲市",
    "pinyin":"neiqushi",
    "popular_city":0
  },
  {
    "id":161,
    "city_code":"0892",
    "city":"日喀则市",
    "pinyin":"rikazeshi",
    "popular_city":0
  },
  {
    "id":162,
    "city_code":"0894",
    "city":"林芝市",
    "pinyin":"linzhishi",
    "popular_city":0
  },
  {
    "id":163,
    "city_code":"0897",
    "city":"阿里地区",
    "pinyin":"alidiqu",
    "popular_city":0
  },
  {
    "id":164,
    "city_code":"0893",
    "city":"山南市",
    "pinyin":"shannanshi",
    "popular_city":0
  },
  {
    "id":165,
    "city_code":"0555",
    "city":"马鞍山市",
    "pinyin":"maanshanshi",
    "popular_city":0
  },
  {
    "id":166,
    "city_code":"0558",
    "city":"亳州市",
    "pinyin":"bozhoushi",
    "popular_city":0
  },
  {
    "id":167,
    "city_code":"0566",
    "city":"池州市",
    "pinyin":"chizhoushi",
    "popular_city":0
  },
  {
    "id":168,
    "city_code":"1558",
    "city":"阜阳市",
    "pinyin":"fuyangshi",
    "popular_city":0
  },
  {
    "id":169,
    "city_code":"0561",
    "city":"淮北市",
    "pinyin":"huaibeishi",
    "popular_city":0
  },
  {
    "id":170,
    "city_code":"0562",
    "city":"铜陵市",
    "pinyin":"tonglingshi",
    "popular_city":0
  },
  {
    "id":171,
    "city_code":"0552",
    "city":"蚌埠市",
    "pinyin":"bangbushi",
    "popular_city":0
  },
  {
    "id":172,
    "city_code":"0553",
    "city":"芜湖市",
    "pinyin":"wuhushi",
    "popular_city":0
  },
  {
    "id":173,
    "city_code":"0564",
    "city":"六安市",
    "pinyin":"liuanshi",
    "popular_city":0
  },
  {
    "id":174,
    "city_code":"0556",
    "city":"安庆市",
    "pinyin":"anqingshi",
    "popular_city":0
  },
  {
    "id":175,
    "city_code":"0550",
    "city":"滁州市",
    "pinyin":"chuzhoushi",
    "popular_city":0
  },
  {
    "id":176,
    "city_code":"0559",
    "city":"黄山市",
    "pinyin":"huangshanshi",
    "popular_city":0
  },
  {
    "id":177,
    "city_code":"0563",
    "city":"宣城市",
    "pinyin":"xuanchengshi",
    "popular_city":0
  },
  {
    "id":178,
    "city_code":"0554",
    "city":"淮南市",
    "pinyin":"huainanshi",
    "popular_city":0
  },
  {
    "id":179,
    "city_code":"0551",
    "city":"合肥市",
    "pinyin":"hefeishi",
    "popular_city":0
  },
  {
    "id":180,
    "city_code":"0557",
    "city":"宿州市",
    "pinyin":"suzhoushi",
    "popular_city":0
  },
  {
    "id":181,
    "city_code":"0593",
    "city":"宁德市",
    "pinyin":"ningdeshi",
    "popular_city":0
  },
  {
    "id":182,
    "city_code":"0597",
    "city":"龙岩市",
    "pinyin":"longyanshi",
    "popular_city":0
  },
  {
    "id":183,
    "city_code":"0591",
    "city":"福州市",
    "pinyin":"fuzhoushi",
    "popular_city":0
  },
  {
    "id":184,
    "city_code":"0594",
    "city":"莆田市",
    "pinyin":"putianshi",
    "popular_city":0
  },
  {
    "id":185,
    "city_code":"0596",
    "city":"漳州市",
    "pinyin":"zhangzhoushi",
    "popular_city":0
  },
  {
    "id":186,
    "city_code":"0592",
    "city":"厦门市",
    "pinyin":"shamenshi",
    "popular_city":0
  },
  {
    "id":187,
    "city_code":"0595",
    "city":"泉州市",
    "pinyin":"quanzhoushi",
    "popular_city":0
  },
  {
    "id":188,
    "city_code":"0598",
    "city":"三明市",
    "pinyin":"sanmingshi",
    "popular_city":0
  },
  {
    "id":189,
    "city_code":"0599",
    "city":"南平市",
    "pinyin":"nanpingshi",
    "popular_city":0
  },
  {
    "id":190,
    "city_code":"0737",
    "city":"益阳市",
    "pinyin":"yiyangshi",
    "popular_city":0
  },
  {
    "id":191,
    "city_code":"0734",
    "city":"衡阳市",
    "pinyin":"hengyangshi",
    "popular_city":0
  },
  {
    "id":192,
    "city_code":"0730",
    "city":"岳阳市",
    "pinyin":"yueyangshi",
    "popular_city":0
  },
  {
    "id":193,
    "city_code":"0738",
    "city":"娄底市",
    "pinyin":"loudishi",
    "popular_city":0
  },
  {
    "id":194,
    "city_code":"0731",
    "city":"长沙市",
    "pinyin":"changshashi",
    "popular_city":0
  },
  {
    "id":195,
    "city_code":"0733",
    "city":"株洲市",
    "pinyin":"zhuzhoushi",
    "popular_city":0
  },
  {
    "id":196,
    "city_code":"0743",
    "city":"湘西土家族苗族自治州",
    "pinyin":"xiangxitujiazumiaozuzizhizhou",
    "popular_city":0
  },
  {
    "id":197,
    "city_code":"0739",
    "city":"邵阳市",
    "pinyin":"shaoyangshi",
    "popular_city":0
  },
  {
    "id":198,
    "city_code":"0744",
    "city":"张家界市",
    "pinyin":"zhangjiajieshi",
    "popular_city":0
  },
  {
    "id":199,
    "city_code":"0745",
    "city":"怀化市",
    "pinyin":"huaihuashi",
    "popular_city":0
  },
  {
    "id":200,
    "city_code":"0736",
    "city":"常德市",
    "pinyin":"changdeshi",
    "popular_city":0
  },
  {
    "id":201,
    "city_code":"0732",
    "city":"湘潭市",
    "pinyin":"xiangtanshi",
    "popular_city":0
  },
  {
    "id":202,
    "city_code":"0746",
    "city":"永州市",
    "pinyin":"yongzhoushi",
    "popular_city":0
  },
  {
    "id":203,
    "city_code":"0735",
    "city":"郴州市",
    "pinyin":"chenzhoushi",
    "popular_city":0
  },
  {
    "id":204,
    "city_code":"0807",
    "city":"东方市",
    "pinyin":"dongfangshi",
    "popular_city":0
  },
  {
    "id":205,
    "city_code":"1896",
    "city":"临高县",
    "pinyin":"lingaoxian",
    "popular_city":0
  },
  {
    "id":206,
    "city_code":"0802",
    "city":"白沙黎族自治县",
    "pinyin":"baishalizuzizhixian",
    "popular_city":0
  },
  {
    "id":207,
    "city_code":"1894",
    "city":"琼海市",
    "pinyin":"qionghaishi",
    "popular_city":0
  },
  {
    "id":208,
    "city_code":"1899",
    "city":"琼中黎族苗族自治县",
    "pinyin":"qiongzhonglizumiaozuzizhixian",
    "popular_city":0
  },
  {
    "id":209,
    "city_code":"0803",
    "city":"昌江黎族自治县",
    "pinyin":"changjianglizuzizhixian",
    "popular_city":0
  },
  {
    "id":210,
    "city_code":"0806",
    "city":"定安县",
    "pinyin":"dinganxian",
    "popular_city":0
  },
  {
    "id":211,
    "city_code":"1898",
    "city":"万宁市",
    "pinyin":"wanningshi",
    "popular_city":0
  },
  {
    "id":212,
    "city_code":"1892",
    "city":"屯昌县",
    "pinyin":"tunchangxian",
    "popular_city":0
  },
  {
    "id":213,
    "city_code":"1897",
    "city":"五指山市",
    "pinyin":"wuzhishanshi",
    "popular_city":0
  },
  {
    "id":214,
    "city_code":"1893",
    "city":"文昌市",
    "pinyin":"wenchangshi",
    "popular_city":0
  },
  {
    "id":215,
    "city_code":"0809",
    "city":"陵水黎族自治县",
    "pinyin":"lingshuilizuzizhixian",
    "popular_city":0
  },
  {
    "id":216,
    "city_code":"0899",
    "city":"三亚市",
    "pinyin":"sanyashi",
    "popular_city":0
  },
  {
    "id":217,
    "city_code":"0801",
    "city":"保亭黎族苗族自治县",
    "pinyin":"baotinglizumiaozuzizhixian",
    "popular_city":0
  },
  {
    "id":218,
    "city_code":"2898",
    "city":"三沙市",
    "pinyin":"sanshashi",
    "popular_city":0
  },
  {
    "id":219,
    "city_code":"2802",
    "city":"乐东黎族自治县",
    "pinyin":"ledonglizuzizhixian",
    "popular_city":0
  },
  {
    "id":220,
    "city_code":"0805",
    "city":"儋州市",
    "pinyin":"danzhoushi",
    "popular_city":0
  },
  {
    "id":221,
    "city_code":"0804",
    "city":"澄迈县",
    "pinyin":"chengmaixian",
    "popular_city":0
  },
  {
    "id":222,
    "city_code":"0898",
    "city":"海口市",
    "pinyin":"haikoushi",
    "popular_city":0
  },
  {
    "id":223,
    "city_code":"0518",
    "city":"连云港市",
    "pinyin":"lianyungangshi",
    "popular_city":0
  },
  {
    "id":224,
    "city_code":"0527",
    "city":"宿迁市",
    "pinyin":"suqianshi",
    "popular_city":0
  },
  {
    "id":225,
    "city_code":"0511",
    "city":"镇江市",
    "pinyin":"zhenjiangshi",
    "popular_city":0
  },
  {
    "id":226,
    "city_code":"025",
    "city":"南京市",
    "pinyin":"nanjingshi",
    "popular_city":0
  },
  {
    "id":227,
    "city_code":"0510",
    "city":"无锡市",
    "pinyin":"wuxishi",
    "popular_city":0
  },
  {
    "id":228,
    "city_code":"0513",
    "city":"南通市",
    "pinyin":"nantongshi",
    "popular_city":0
  },
  {
    "id":229,
    "city_code":"0517",
    "city":"淮安市",
    "pinyin":"huaianshi",
    "popular_city":0
  },
  {
    "id":230,
    "city_code":"0516",
    "city":"徐州市",
    "pinyin":"xuzhoushi",
    "popular_city":0
  },
  {
    "id":231,
    "city_code":"0519",
    "city":"常州市",
    "pinyin":"changzhoushi",
    "popular_city":0
  },
  {
    "id":232,
    "city_code":"0515",
    "city":"盐城市",
    "pinyin":"yanchengshi",
    "popular_city":0
  },
  {
    "id":233,
    "city_code":"0512",
    "city":"苏州市",
    "pinyin":"suzhoushi",
    "popular_city":0
  },
  {
    "id":234,
    "city_code":"0523",
    "city":"泰州市",
    "pinyin":"taizhoushi",
    "popular_city":0
  },
  {
    "id":235,
    "city_code":"0514",
    "city":"扬州市",
    "pinyin":"yangzhoushi",
    "popular_city":0
  },
  {
    "id":236,
    "city_code":"0977",
    "city":"海西蒙古族藏族自治州",
    "pinyin":"haiximengguzuzangzuzizhizhou",
    "popular_city":0
  },
  {
    "id":237,
    "city_code":"0974",
    "city":"海南藏族自治州",
    "pinyin":"hainanzangzuzizhizhou",
    "popular_city":0
  },
  {
    "id":238,
    "city_code":"0973",
    "city":"黄南藏族自治州",
    "pinyin":"huangnanzangzuzizhizhou",
    "popular_city":0
  },
  {
    "id":239,
    "city_code":"0972",
    "city":"海东市",
    "pinyin":"haidongshi",
    "popular_city":0
  },
  {
    "id":240,
    "city_code":"0976",
    "city":"玉树藏族自治州",
    "pinyin":"yushuzangzuzizhizhou",
    "popular_city":0
  },
  {
    "id":241,
    "city_code":"0975",
    "city":"果洛藏族自治州",
    "pinyin":"guoluozangzuzizhizhou",
    "popular_city":0
  },
  {
    "id":242,
    "city_code":"0971",
    "city":"西宁市",
    "pinyin":"xiningshi",
    "popular_city":0
  },
  {
    "id":243,
    "city_code":"0970",
    "city":"海北藏族自治州",
    "pinyin":"haibeizangzuzizhizhou",
    "popular_city":0
  },
  {
    "id":244,
    "city_code":"1755",
    "city":"贵港市",
    "pinyin":"guigangshi",
    "popular_city":0
  },
  {
    "id":245,
    "city_code":"0778",
    "city":"河池市",
    "pinyin":"hechishi",
    "popular_city":0
  },
  {
    "id":246,
    "city_code":"0776",
    "city":"百色市",
    "pinyin":"baiseshi",
    "popular_city":0
  },
  {
    "id":247,
    "city_code":"0777",
    "city":"钦州市",
    "pinyin":"qinzhoushi",
    "popular_city":0
  },
  {
    "id":248,
    "city_code":"0773",
    "city":"桂林市",
    "pinyin":"guilinshi",
    "popular_city":0
  },
  {
    "id":249,
    "city_code":"0772",
    "city":"柳州市",
    "pinyin":"liuzhoushi",
    "popular_city":0
  },
  {
    "id":250,
    "city_code":"0771",
    "city":"南宁市",
    "pinyin":"nanningshi",
    "popular_city":0
  },
  {
    "id":251,
    "city_code":"0779",
    "city":"北海市",
    "pinyin":"beihaishi",
    "popular_city":0
  },
  {
    "id":252,
    "city_code":"1772",
    "city":"来宾市",
    "pinyin":"laibinshi",
    "popular_city":0
  },
  {
    "id":253,
    "city_code":"0770",
    "city":"防城港市",
    "pinyin":"fangchenggangshi",
    "popular_city":0
  },
  {
    "id":254,
    "city_code":"1771",
    "city":"崇左市",
    "pinyin":"chongzuoshi",
    "popular_city":0
  },
  {
    "id":255,
    "city_code":"0774",
    "city":"梧州市",
    "pinyin":"wuzhoushi",
    "popular_city":0
  },
  {
    "id":256,
    "city_code":"1774",
    "city":"贺州市",
    "pinyin":"hezhoushi",
    "popular_city":0
  },
  {
    "id":257,
    "city_code":"0775",
    "city":"玉林市",
    "pinyin":"yulinshi",
    "popular_city":0
  },
  {
    "id":258,
    "city_code":"0954",
    "city":"固原市",
    "pinyin":"guyuanshi",
    "popular_city":0
  },
  {
    "id":259,
    "city_code":"0952",
    "city":"石嘴山市",
    "pinyin":"shizuishanshi",
    "popular_city":0
  },
  {
    "id":260,
    "city_code":"1953",
    "city":"中卫市",
    "pinyin":"zhongweishi",
    "popular_city":0
  },
  {
    "id":261,
    "city_code":"0953",
    "city":"吴忠市",
    "pinyin":"wuzhongshi",
    "popular_city":0
  },
  {
    "id":262,
    "city_code":"0951",
    "city":"银川市",
    "pinyin":"yinchuanshi",
    "popular_city":0
  },
  {
    "id":263,
    "city_code":"0790",
    "city":"新余市",
    "pinyin":"xinyushi",
    "popular_city":0
  },
  {
    "id":264,
    "city_code":"0701",
    "city":"鹰潭市",
    "pinyin":"yingtanshi",
    "popular_city":0
  },
  {
    "id":265,
    "city_code":"0792",
    "city":"九江市",
    "pinyin":"jiujiangshi",
    "popular_city":0
  },
  {
    "id":266,
    "city_code":"0798",
    "city":"景德镇市",
    "pinyin":"jingdezhenshi",
    "popular_city":0
  },
  {
    "id":267,
    "city_code":"0794",
    "city":"抚州市",
    "pinyin":"fuzhoushi",
    "popular_city":0
  },
  {
    "id":268,
    "city_code":"0797",
    "city":"赣州市",
    "pinyin":"ganzhoushi",
    "popular_city":0
  },
  {
    "id":269,
    "city_code":"0793",
    "city":"上饶市",
    "pinyin":"shangraoshi",
    "popular_city":0
  },
  {
    "id":270,
    "city_code":"0791",
    "city":"南昌市",
    "pinyin":"nanchangshi",
    "popular_city":0
  },
  {
    "id":271,
    "city_code":"0795",
    "city":"宜春市",
    "pinyin":"yichunshi",
    "popular_city":0
  },
  {
    "id":272,
    "city_code":"0799",
    "city":"萍乡市",
    "pinyin":"pingxiangshi",
    "popular_city":0
  },
  {
    "id":273,
    "city_code":"0796",
    "city":"吉安市",
    "pinyin":"jianshi",
    "popular_city":0
  },
  {
    "id":274,
    "city_code":"0576",
    "city":"台州市",
    "pinyin":"taizhoushi",
    "popular_city":0
  },
  {
    "id":275,
    "city_code":"0577",
    "city":"温州市",
    "pinyin":"wenzhoushi",
    "popular_city":0
  },
  {
    "id":276,
    "city_code":"0580",
    "city":"舟山市",
    "pinyin":"zhoushanshi",
    "popular_city":0
  },
  {
    "id":277,
    "city_code":"0573",
    "city":"嘉兴市",
    "pinyin":"jiaxingshi",
    "popular_city":0
  },
  {
    "id":278,
    "city_code":"0574",
    "city":"宁波市",
    "pinyin":"ningboshi",
    "popular_city":0
  },
  {
    "id":279,
    "city_code":"0570",
    "city":"衢州市",
    "pinyin":"quzhoushi",
    "popular_city":0
  },
  {
    "id":280,
    "city_code":"0579",
    "city":"金华市",
    "pinyin":"jinhuashi",
    "popular_city":0
  },
  {
    "id":281,
    "city_code":"0578",
    "city":"丽水市",
    "pinyin":"lishuishi",
    "popular_city":0
  },
  {
    "id":282,
    "city_code":"0571",
    "city":"杭州市",
    "pinyin":"hangzhoushi",
    "popular_city":0
  },
  {
    "id":283,
    "city_code":"0572",
    "city":"湖州市",
    "pinyin":"huzhoushi",
    "popular_city":0
  },
  {
    "id":284,
    "city_code":"0575",
    "city":"绍兴市",
    "pinyin":"shaoxingshi",
    "popular_city":0
  },
  {
    "id":285,
    "city_code":"0315",
    "city":"唐山市",
    "pinyin":"tangshanshi",
    "popular_city":0
  },
  {
    "id":286,
    "city_code":"0314",
    "city":"承德市",
    "pinyin":"chengdeshi",
    "popular_city":0
  },
  {
    "id":287,
    "city_code":"0316",
    "city":"廊坊市",
    "pinyin":"langfangshi",
    "popular_city":0
  },
  {
    "id":288,
    "city_code":"0317",
    "city":"沧州市",
    "pinyin":"cangzhoushi",
    "popular_city":0
  },
  {
    "id":289,
    "city_code":"0318",
    "city":"衡水市",
    "pinyin":"hengshuishi",
    "popular_city":0
  },
  {
    "id":290,
    "city_code":"0312",
    "city":"保定市",
    "pinyin":"baodingshi",
    "popular_city":0
  },
  {
    "id":291,
    "city_code":"0335",
    "city":"秦皇岛市",
    "pinyin":"qinhuangdaoshi",
    "popular_city":0
  },
  {
    "id":292,
    "city_code":"0311",
    "city":"石家庄市",
    "pinyin":"shijiazhuangshi",
    "popular_city":0
  },
  {
    "id":293,
    "city_code":"0310",
    "city":"邯郸市",
    "pinyin":"handanshi",
    "popular_city":0
  },
  {
    "id":294,
    "city_code":"0319",
    "city":"邢台市",
    "pinyin":"xingtaishi",
    "popular_city":0
  },
  {
    "id":295,
    "city_code":"0313",
    "city":"张家口市",
    "pinyin":"zhangjiakoushi",
    "popular_city":1
  },
  {
    "id":296,
    "city_code":"1853",
    "city":"澳门特别行政区",
    "pinyin":"aomentebiexingzhengqu",
    "popular_city":0
  },
  {
    "id":297,
    "city_code":"1886",
    "city":"台湾省",
    "pinyin":"taiwansheng",
    "popular_city":0
  },
  {
    "id":298,
    "city_code":"1852",
    "city":"香港特别行政区",
    "pinyin":"xianggangtebiexingzhengqu",
    "popular_city":0
  },
  {
    "id":299,
    "city_code":"0937",
    "city":"酒泉市",
    "pinyin":"jiuquanshi",
    "popular_city":0
  },
  {
    "id":300,
    "city_code":"1937",
    "city":"嘉峪关市",
    "pinyin":"jiayuguanshi",
    "popular_city":0
  },
  {
    "id":301,
    "city_code":"0935",
    "city":"金昌市",
    "pinyin":"jinchangshi",
    "popular_city":0
  },
  {
    "id":302,
    "city_code":"0932",
    "city":"定西市",
    "pinyin":"dingxishi",
    "popular_city":0
  },
  {
    "id":303,
    "city_code":"2935",
    "city":"陇南市",
    "pinyin":"longnanshi",
    "popular_city":0
  },
  {
    "id":304,
    "city_code":"0943",
    "city":"白银市",
    "pinyin":"baiyinshi",
    "popular_city":0
  },
  {
    "id":305,
    "city_code":"0938",
    "city":"天水市",
    "pinyin":"tianshuishi",
    "popular_city":0
  },
  {
    "id":306,
    "city_code":"0933",
    "city":"平凉市",
    "pinyin":"pingliangshi",
    "popular_city":0
  },
  {
    "id":307,
    "city_code":"1935",
    "city":"武威市",
    "pinyin":"wuweishi",
    "popular_city":0
  },
  {
    "id":308,
    "city_code":"0931",
    "city":"兰州市",
    "pinyin":"lanzhoushi",
    "popular_city":0
  },
  {
    "id":309,
    "city_code":"0934",
    "city":"庆阳市",
    "pinyin":"qingyangshi",
    "popular_city":0
  },
  {
    "id":310,
    "city_code":"0941",
    "city":"甘南藏族自治州",
    "pinyin":"gannanzangzuzizhizhou",
    "popular_city":0
  },
  {
    "id":311,
    "city_code":"0930",
    "city":"临夏回族自治州",
    "pinyin":"linxiahuizuzizhizhou",
    "popular_city":0
  },
  {
    "id":312,
    "city_code":"0936",
    "city":"张掖市",
    "pinyin":"zhangyeshi",
    "popular_city":0
  },
  {
    "id":313,
    "city_code":"0817",
    "city":"南充市",
    "pinyin":"nanchongshi",
    "popular_city":0
  },
  {
    "id":314,
    "city_code":"0839",
    "city":"广元市",
    "pinyin":"guangyuanshi",
    "popular_city":0
  },
  {
    "id":315,
    "city_code":"0827",
    "city":"巴中市",
    "pinyin":"bazhongshi",
    "popular_city":0
  },
  {
    "id":316,
    "city_code":"0818",
    "city":"达州市",
    "pinyin":"dazhoushi",
    "popular_city":0
  },
  {
    "id":317,
    "city_code":"0816",
    "city":"绵阳市",
    "pinyin":"mianyangshi",
    "popular_city":0
  },
  {
    "id":318,
    "city_code":"0838",
    "city":"德阳市",
    "pinyin":"deyangshi",
    "popular_city":0
  },
  {
    "id":319,
    "city_code":"0825",
    "city":"遂宁市",
    "pinyin":"suiningshi",
    "popular_city":0
  },
  {
    "id":320,
    "city_code":"028",
    "city":"成都市",
    "pinyin":"chengdoushi",
    "popular_city":0
  },
  {
    "id":321,
    "city_code":"0832",
    "city":"资阳市",
    "pinyin":"ziyangshi",
    "popular_city":0
  },
  {
    "id":322,
    "city_code":"1833",
    "city":"眉山市",
    "pinyin":"meishanshi",
    "popular_city":0
  },
  {
    "id":323,
    "city_code":"0826",
    "city":"广安市",
    "pinyin":"guanganshi",
    "popular_city":0
  },
  {
    "id":324,
    "city_code":"1832",
    "city":"内江市",
    "pinyin":"neijiangshi",
    "popular_city":0
  },
  {
    "id":325,
    "city_code":"0833",
    "city":"乐山市",
    "pinyin":"leshanshi",
    "popular_city":0
  },
  {
    "id":326,
    "city_code":"0813",
    "city":"自贡市",
    "pinyin":"zigongshi",
    "popular_city":0
  },
  {
    "id":327,
    "city_code":"0835",
    "city":"雅安市",
    "pinyin":"yaanshi",
    "popular_city":0
  },
  {
    "id":328,
    "city_code":"0812",
    "city":"攀枝花市",
    "pinyin":"panzhihuashi",
    "popular_city":0
  },
  {
    "id":329,
    "city_code":"0834",
    "city":"凉山彝族自治州",
    "pinyin":"liangshanyizuzizhizhou",
    "popular_city":0
  },
  {
    "id":330,
    "city_code":"0831",
    "city":"宜宾市",
    "pinyin":"yibinshi",
    "popular_city":0
  },
  {
    "id":331,
    "city_code":"0830",
    "city":"泸州市",
    "pinyin":"luzhoushi",
    "popular_city":0
  },
  {
    "id":332,
    "city_code":"0837",
    "city":"阿坝藏族羌族自治州",
    "pinyin":"abazangzuqiangzuzizhizhou",
    "popular_city":0
  },
  {
    "id":333,
    "city_code":"0836",
    "city":"甘孜藏族自治州",
    "pinyin":"ganzizangzuzizhizhou",
    "popular_city":0
  },
  {
    "id":334,
    "city_code":"0438",
    "city":"松原市",
    "pinyin":"songyuanshi",
    "popular_city":0
  },
  {
    "id":335,
    "city_code":"0436",
    "city":"白城市",
    "pinyin":"baichengshi",
    "popular_city":0
  },
  {
    "id":336,
    "city_code":"0437",
    "city":"辽源市",
    "pinyin":"liaoyuanshi",
    "popular_city":0
  },
  {
    "id":337,
    "city_code":"0431",
    "city":"长春市",
    "pinyin":"changchunshi",
    "popular_city":0
  },
  {
    "id":338,
    "city_code":"0432",
    "city":"吉林市",
    "pinyin":"jilinshi",
    "popular_city":0
  },
  {
    "id":339,
    "city_code":"0434",
    "city":"四平市",
    "pinyin":"sipingshi",
    "popular_city":0
  },
  {
    "id":340,
    "city_code":"0439",
    "city":"白山市",
    "pinyin":"baishanshi",
    "popular_city":0
  },
  {
    "id":341,
    "city_code":"1433",
    "city":"延边朝鲜族自治州",
    "pinyin":"yanbianchaoxianzuzizhizhou",
    "popular_city":0
  },
  {
    "id":342,
    "city_code":"0435",
    "city":"通化市",
    "pinyin":"tonghuashi",
    "popular_city":0
  },
  {
    "id":343,
    "city_code":"022",
    "city":"天津市",
    "pinyin":"tianjinshi",
    "popular_city":1
  },
  {
    "id":344,
    "city_code":"0874",
    "city":"曲靖市",
    "pinyin":"qujingshi",
    "popular_city":0
  },
  {
    "id":345,
    "city_code":"0870",
    "city":"昭通市",
    "pinyin":"zhaotongshi",
    "popular_city":0
  },
  {
    "id":346,
    "city_code":"0873",
    "city":"红河哈尼族彝族自治州",
    "pinyin":"honghehanizuyizuzizhizhou",
    "popular_city":0
  },
  {
    "id":347,
    "city_code":"0886",
    "city":"怒江傈僳族自治州",
    "pinyin":"nujianglisuzuzizhizhou",
    "popular_city":0
  },
  {
    "id":348,
    "city_code":"0879",
    "city":"普洱市",
    "pinyin":"puershi",
    "popular_city":0
  },
  {
    "id":349,
    "city_code":"0875",
    "city":"保山市",
    "pinyin":"baoshanshi",
    "popular_city":0
  },
  {
    "id":350,
    "city_code":"0691",
    "city":"西双版纳傣族自治州",
    "pinyin":"xishuangbannadaizuzizhizhou",
    "popular_city":0
  },
  {
    "id":351,
    "city_code":"0872",
    "city":"大理白族自治州",
    "pinyin":"dalibaizuzizhizhou",
    "popular_city":0
  },
  {
    "id":352,
    "city_code":"0876",
    "city":"文山壮族苗族自治州",
    "pinyin":"wenshanzhuangzumiaozuzizhizhou",
    "popular_city":0
  },
  {
    "id":353,
    "city_code":"0888",
    "city":"丽江市",
    "pinyin":"lijiangshi",
    "popular_city":0
  },
  {
    "id":354,
    "city_code":"0877",
    "city":"玉溪市",
    "pinyin":"yuxishi",
    "popular_city":0
  },
  {
    "id":355,
    "city_code":"0887",
    "city":"迪庆藏族自治州",
    "pinyin":"diqingzangzuzizhizhou",
    "popular_city":0
  },
  {
    "id":356,
    "city_code":"0871",
    "city":"昆明市",
    "pinyin":"kunmingshi",
    "popular_city":0
  },
  {
    "id":357,
    "city_code":"0878",
    "city":"楚雄彝族自治州",
    "pinyin":"chuxiongyizuzizhizhou",
    "popular_city":0
  },
  {
    "id":358,
    "city_code":"0883",
    "city":"临沧市",
    "pinyin":"lincangshi",
    "popular_city":0
  },
  {
    "id":359,
    "city_code":"0692",
    "city":"德宏傣族景颇族自治州",
    "pinyin":"dehongdaizujingpozuzizhizhou",
    "popular_city":0
  },
  {
    "id":360,
    "city_code":"010",
    "city":"北京市",
    "pinyin":"beijingshi",
    "popular_city":1
  },
  {
    "id":361,
    "city_code":"0359",
    "city":"运城市",
    "pinyin":"yunchengshi",
    "popular_city":0
  },
  {
    "id":362,
    "city_code":"0357",
    "city":"临汾市",
    "pinyin":"linfenshi",
    "popular_city":0
  },
  {
    "id":363,
    "city_code":"0356",
    "city":"晋城市",
    "pinyin":"jinchengshi",
    "popular_city":0
  },
  {
    "id":364,
    "city_code":"0355",
    "city":"长治市",
    "pinyin":"changzhishi",
    "popular_city":0
  },
  {
    "id":365,
    "city_code":"0353",
    "city":"阳泉市",
    "pinyin":"yangquanshi",
    "popular_city":0
  },
  {
    "id":366,
    "city_code":"0351",
    "city":"太原市",
    "pinyin":"taiyuanshi",
    "popular_city":0
  },
  {
    "id":367,
    "city_code":"0350",
    "city":"忻州市",
    "pinyin":"xinzhoushi",
    "popular_city":0
  },
  {
    "id":368,
    "city_code":"0349",
    "city":"朔州市",
    "pinyin":"shuozhoushi",
    "popular_city":0
  },
  {
    "id":369,
    "city_code":"0354",
    "city":"晋中市",
    "pinyin":"jinzhongshi",
    "popular_city":0
  },
  {
    "id":370,
    "city_code":"0358",
    "city":"吕梁市",
    "pinyin":"lu:liangshi",
    "popular_city":0
  },
  {
    "id":371,
    "city_code":"0352",
    "city":"大同市",
    "pinyin":"datongshi",
    "popular_city":0
  }]